start=new Date('2022-07-22T00:00:00.000Z').valueOf();
sats=[{"NORAD_CAT_ID":"45783","ELEMENT_SET_NO":"999","ECCENTRICITY":"0.00012110","TIME_SYSTEM":"UTC","GP_ID":"208602132","MEAN_ELEMENT_THEORY":"SGP4","TLE_LINE1":"1 45783U 20038BF  22202.83591639 -.00003299  00000-0 -20267-3 0  9997","EPOCH":"2022-07-21T20:03:43.176096","BSTAR":"-0.00020267000000","SITE":"AFETR","PERIAPSIS":"546.360","MEAN_ANOMALY":"280.9113","PERIOD":"95.592","APOAPSIS":"548.038","COUNTRY_CODE":"US","CLASSIFICATION_TYPE":"U","OBJECT_ID":"2020-038BF","EPHEMERIS_TYPE":"0","FILE":"3519265","TLE_LINE2":"2 45783  53.0563  33.1009 0001211  79.2012 280.9113 15.06404762116774","INCLINATION":"53.0563","RCS_SIZE":"LARGE","REV_AT_EPOCH":"11677","ARG_OF_PERICENTER":"79.2012","OBJECT_NAME":"STARLINK-1505","MEAN_MOTION_DDOT":"0.0000000000000","OBJECT_TYPE":"PAYLOAD","LAUNCH_DATE":"2020-06-13","MEAN_MOTION":"15.06404762","MEAN_MOTION_DOT":"-0.00003299","CENTER_NAME":"EARTH","DECAY_DATE":null,"SEMIMAJOR_AXIS":"6925.334","REF_FRAME":"TEME","RA_OF_ASC_NODE":"33.1009"},{"SEMIMAJOR_AXIS":"6925.382","REF_FRAME":"TEME","RA_OF_ASC_NODE":"33.2030","OBJECT_TYPE":"PAYLOAD","OBJECT_NAME":"STARLINK-1510","MEAN_MOTION_DDOT":"0.0000000000000","CENTER_NAME":"EARTH","DECAY_DATE":null,"MEAN_MOTION":"15.06388960","LAUNCH_DATE":"2020-06-13","MEAN_MOTION_DOT":"-0.00000398","REV_AT_EPOCH":"11676","ARG_OF_PERICENTER":"78.3451","TLE_LINE2":"2 45784  53.0552  33.2030 0001665  78.3451 281.7725 15.06388960116766","FILE":"3519265","RCS_SIZE":"LARGE","INCLINATION":"53.0552","EPHEMERIS_TYPE":"0","COUNTRY_CODE":"US","CLASSIFICATION_TYPE":"U","OBJECT_ID":"2020-038BG","SITE":"AFETR","BSTAR":"-0.00000780160000","EPOCH":"2022-07-21T19:26:34.014624","PERIOD":"95.593","APOAPSIS":"548.400","PERIAPSIS":"546.094","MEAN_ANOMALY":"281.7725","MEAN_ELEMENT_THEORY":"SGP4","TLE_LINE1":"1 45784U 20038BG  22202.81011591 -.00000398  00000-0 -78016-5 0  9994","GP_ID":"208602878","ELEMENT_SET_NO":"999","NORAD_CAT_ID":"45784","ECCENTRICITY":"0.00016650","TIME_SYSTEM":"UTC"},{"MEAN_ELEMENT_THEORY":"SGP4","TLE_LINE1":"1 45785U 20038BH  22202.79168528 -.00003737  00000-0 -23221-3 0  9991","ECCENTRICITY":"0.00013690","ELEMENT_SET_NO":"999","NORAD_CAT_ID":"45785","TIME_SYSTEM":"UTC","GP_ID":"208601639","COUNTRY_CODE":"US","CLASSIFICATION_TYPE":"U","OBJECT_ID":"2020-038BH","EPHEMERIS_TYPE":"0","EPOCH":"2022-07-21T19:00:01.608192","BSTAR":"-0.00023221000000","SITE":"AFETR","PERIAPSIS":"546.319","MEAN_ANOMALY":"290.8428","PERIOD":"95.593","APOAPSIS":"548.215","REV_AT_EPOCH":"11676","ARG_OF_PERICENTER":"69.2708","FILE":"3519265","TLE_LINE2":"2 45785  53.0556  33.2992 0001369  69.2708 290.8428 15.06382476116760","INCLINATION":"53.0556","RCS_SIZE":"LARGE","SEMIMAJOR_AXIS":"6925.402","RA_OF_ASC_NODE":"33.2992","REF_FRAME":"TEME","OBJECT_NAME":"STARLINK-1512","MEAN_MOTION_DDOT":"0.0000000000000","OBJECT_TYPE":"PAYLOAD","LAUNCH_DATE":"2020-06-13","MEAN_MOTION":"15.06382476","MEAN_MOTION_DOT":"-0.00003737","CENTER_NAME":"EARTH","DECAY_DATE":null},{"ARG_OF_PERICENTER":"73.1352","REV_AT_EPOCH":"11676","RCS_SIZE":"LARGE","INCLINATION":"53.0548","TLE_LINE2":"2 45786  53.0548  33.3775 0001466  73.1352 286.9798 15.06387309116765","FILE":"3519265","SEMIMAJOR_AXIS":"6925.387","RA_OF_ASC_NODE":"33.3775","REF_FRAME":"TEME","CENTER_NAME":"EARTH","DECAY_DATE":null,"MEAN_MOTION":"15.06387309","LAUNCH_DATE":"2020-06-13","MEAN_MOTION_DOT":"-0.00002698","OBJECT_TYPE":"PAYLOAD","OBJECT_NAME":"STARLINK-1513","MEAN_MOTION_DDOT":"0.0000000000000","TLE_LINE1":"1 45786U 20038BJ  22202.77693608 -.00002698  00000-0 -16238-3 0  9997","MEAN_ELEMENT_THEORY":"SGP4","GP_ID":"208601889","NORAD_CAT_ID":"45786","ELEMENT_SET_NO":"999","ECCENTRICITY":"0.00014660","TIME_SYSTEM":"UTC","EPHEMERIS_TYPE":"0","COUNTRY_CODE":"US","OBJECT_ID":"2020-038BJ","CLASSIFICATION_TYPE":"U","PERIOD":"95.593","APOAPSIS":"548.268","PERIAPSIS":"546.237","MEAN_ANOMALY":"286.9798","SITE":"AFETR","BSTAR":"-0.00016238000000","EPOCH":"2022-07-21T18:38:47.277312"},{"EPHEMERIS_TYPE":"0","COUNTRY_CODE":"US","OBJECT_ID":"2020-038BK","CLASSIFICATION_TYPE":"U","SITE":"AFETR","BSTAR":"-0.00000975250000","EPOCH":"2022-07-21T18:49:24.564576","PERIOD":"95.593","APOAPSIS":"548.211","PERIAPSIS":"546.285","MEAN_ANOMALY":"281.0589","MEAN_ELEMENT_THEORY":"SGP4","TLE_LINE1":"1 45787U 20038BK  22202.78431209 -.00000427  00000-0 -97525-5 0  9994","GP_ID":"208602633","ELEMENT_SET_NO":"999","ECCENTRICITY":"0.00013910","NORAD_CAT_ID":"45787","TIME_SYSTEM":"UTC","SEMIMAJOR_AXIS":"6925.383","RA_OF_ASC_NODE":"33.3425","REF_FRAME":"TEME","OBJECT_TYPE":"PAYLOAD","OBJECT_NAME":"STARLINK-1517","MEAN_MOTION_DDOT":"0.0000000000000","CENTER_NAME":"EARTH","DECAY_DATE":null,"MEAN_MOTION":"15.06388774","LAUNCH_DATE":"2020-06-13","MEAN_MOTION_DOT":"-0.00000427","REV_AT_EPOCH":"11676","ARG_OF_PERICENTER":"79.0556","TLE_LINE2":"2 45787  53.0562  33.3425 0001391  79.0556 281.0589 15.06388774116763","FILE":"3519265","RCS_SIZE":"LARGE","INCLINATION":"53.0562"},{"MEAN_ELEMENT_THEORY":"SGP4","TLE_LINE1":"1 46027U 20055A   22202.75759256 -.00002107  00000-0 -12263-3 0  9994","GP_ID":"208602657","ECCENTRICITY":"0.00013990","ELEMENT_SET_NO":"999","NORAD_CAT_ID":"46027","TIME_SYSTEM":"UTC","EPHEMERIS_TYPE":"0","COUNTRY_CODE":"US","OBJECT_ID":"2020-055A","CLASSIFICATION_TYPE":"U","SITE":"AFETR","EPOCH":"2022-07-21T18:10:55.997184","BSTAR":"-0.00012263000000","PERIOD":"95.593","APOAPSIS":"548.223","PERIAPSIS":"546.286","MEAN_ANOMALY":"282.1164","REV_AT_EPOCH":"10888","ARG_OF_PERICENTER":"77.9982","TLE_LINE2":"2 46027  53.0562 323.4433 0001399  77.9982 282.1164 15.06386604108886","FILE":"3519265","RCS_SIZE":"LARGE","INCLINATION":"53.0562","SEMIMAJOR_AXIS":"6925.390","RA_OF_ASC_NODE":"323.4433","REF_FRAME":"TEME","OBJECT_TYPE":"PAYLOAD","OBJECT_NAME":"STARLINK-1522","MEAN_MOTION_DDOT":"0.0000000000000","CENTER_NAME":"EARTH","DECAY_DATE":null,"MEAN_MOTION":"15.06386604","LAUNCH_DATE":"2020-08-07","MEAN_MOTION_DOT":"-0.00002107"},{"TIME_SYSTEM":"UTC","ELEMENT_SET_NO":"999","NORAD_CAT_ID":"46028","ECCENTRICITY":"0.00012620","GP_ID":"208602403","MEAN_ELEMENT_THEORY":"SGP4","TLE_LINE1":"1 46028U 20055B   22202.77234290 -.00001550  00000-0 -85238-4 0  9997","BSTAR":"-0.00008523800000","EPOCH":"2022-07-21T18:32:10.426560","SITE":"AFETR","PERIAPSIS":"546.390","MEAN_ANOMALY":"279.4004","PERIOD":"95.593","APOAPSIS":"548.138","COUNTRY_CODE":"US","OBJECT_ID":"2020-055B","CLASSIFICATION_TYPE":"U","EPHEMERIS_TYPE":"0","FILE":"3519265","TLE_LINE2":"2 46028  53.0554 323.3707 0001262  80.7128 279.4004 15.06383385108902","INCLINATION":"53.0554","RCS_SIZE":"LARGE","REV_AT_EPOCH":"10890","ARG_OF_PERICENTER":"80.7128","OBJECT_NAME":"STARLINK-1523","MEAN_MOTION_DDOT":"0.0000000000000","OBJECT_TYPE":"PAYLOAD","MEAN_MOTION":"15.06383385","LAUNCH_DATE":"2020-08-07","MEAN_MOTION_DOT":"-0.00001550","CENTER_NAME":"EARTH","DECAY_DATE":null,"SEMIMAJOR_AXIS":"6925.399","RA_OF_ASC_NODE":"323.3707","REF_FRAME":"TEME"},{"EPHEMERIS_TYPE":"0","OBJECT_ID":"2020-055C","CLASSIFICATION_TYPE":"U","COUNTRY_CODE":"US","APOAPSIS":"548.207","PERIOD":"95.593","MEAN_ANOMALY":"284.6977","PERIAPSIS":"546.294","SITE":"AFETR","EPOCH":"2022-07-21T18:21:33.254208","BSTAR":"-0.00016032000000","TLE_LINE1":"1 46029U 20055C   22202.76496822 -.00002668  00000-0 -16032-3 0  9994","MEAN_ELEMENT_THEORY":"SGP4","GP_ID":"208601163","ELEMENT_SET_NO":"999","TIME_SYSTEM":"UTC","NORAD_CAT_ID":"46029","ECCENTRICITY":"0.00013810","REF_FRAME":"TEME","RA_OF_ASC_NODE":"323.4118","SEMIMAJOR_AXIS":"6925.386","DECAY_DATE":null,"CENTER_NAME":"EARTH","MEAN_MOTION_DOT":"-0.00002668","MEAN_MOTION":"15.06387911","LAUNCH_DATE":"2020-08-07","OBJECT_TYPE":"PAYLOAD","MEAN_MOTION_DDOT":"0.0000000000000","OBJECT_NAME":"STARLINK-1526","ARG_OF_PERICENTER":"75.4165","REV_AT_EPOCH":"10889","RCS_SIZE":"LARGE","INCLINATION":"53.0556","TLE_LINE2":"2 46029  53.0556 323.4118 0001381  75.4165 284.6977 15.06387911108890","FILE":"3519265"},{"MEAN_ELEMENT_THEORY":"SGP4","TLE_LINE1":"1 46030U 20055D   22202.71705183 -.00007946  00000-0 -51559-3 0  9991","GP_ID":"208601413","ECCENTRICITY":"0.00014170","ELEMENT_SET_NO":"999","NORAD_CAT_ID":"46030","TIME_SYSTEM":"UTC","EPHEMERIS_TYPE":"0","CLASSIFICATION_TYPE":"U","OBJECT_ID":"2020-055D","COUNTRY_CODE":"US","SITE":"AFETR","BSTAR":"-0.00051559000000","EPOCH":"2022-07-21T17:12:33.278112","APOAPSIS":"548.294","PERIOD":"95.594","MEAN_ANOMALY":"287.4302","PERIAPSIS":"546.331","REV_AT_EPOCH":"10884","ARG_OF_PERICENTER":"72.6841","TLE_LINE2":"2 46030  53.0549 323.6388 0001417  72.6841 287.4302 15.06367660108842","FILE":"3519265","RCS_SIZE":"LARGE","INCLINATION":"53.0549","RA_OF_ASC_NODE":"323.6388","REF_FRAME":"TEME","SEMIMAJOR_AXIS":"6925.448","OBJECT_TYPE":"PAYLOAD","MEAN_MOTION_DDOT":"0.0000000000000","OBJECT_NAME":"STARLINK-1534","DECAY_DATE":null,"CENTER_NAME":"EARTH","MEAN_MOTION_DOT":"-0.00007946","LAUNCH_DATE":"2020-08-07","MEAN_MOTION":"15.06367660"},{"DECAY_DATE":null,"CENTER_NAME":"EARTH","MEAN_MOTION_DOT":"-0.00001644","MEAN_MOTION":"15.06397232","LAUNCH_DATE":"2020-08-07","OBJECT_TYPE":"PAYLOAD","MEAN_MOTION_DDOT":"0.0000000000000","OBJECT_NAME":"STARLINK-1544","REF_FRAME":"TEME","RA_OF_ASC_NODE":"323.6135","SEMIMAJOR_AXIS":"6925.357","RCS_SIZE":"LARGE","INCLINATION":"53.0564","TLE_LINE2":"2 46031  53.0564 323.6135 0001427  74.8388 285.2759 15.06397232108874","FILE":"3519265","ARG_OF_PERICENTER":"74.8388","REV_AT_EPOCH":"10887","APOAPSIS":"548.210","PERIOD":"95.592","MEAN_ANOMALY":"285.2759","PERIAPSIS":"546.234","SITE":"AFETR","BSTAR":"-0.00009148500000","EPOCH":"2022-07-21T17:17:50.246016","EPHEMERIS_TYPE":"0","OBJECT_ID":"2020-055E","CLASSIFICATION_TYPE":"U","COUNTRY_CODE":"US","GP_ID":"208602157","ELEMENT_SET_NO":"999","NORAD_CAT_ID":"46031","ECCENTRICITY":"0.00014270","TIME_SYSTEM":"UTC","TLE_LINE1":"1 46031U 20055E   22202.72072044 -.00001644  00000-0 -91485-4 0  9998","MEAN_ELEMENT_THEORY":"SGP4"}];
